{"type": "FeatureCollection", "features": [ {"type": "Feature", "properties": {"norad_id": 29892, "name": "FENGYUN 1C DEB", "group": "fengyun-1c-debris", "lat": 12.654626664829882, "lon": 133.8708213622059, "alt_km": 759.4819994090685, "timestamp": "2025-12-14T07:33:19.749540+00:00", "meta": {"OBJECT_NAME": "FENGYUN 1C DEB", "OBJECT_ID": "1999-025GN", "EPOCH": "2025-12-13T16:28:34.109760", "MEAN_MOTION": 14.32209691, "ECCENTRICITY": 0.01913787, "INCLINATION": 99.1807, "RA_OF_ASC_NODE": 135.2867, "ARG_OF_PERICENTER": 294.589, "MEAN_ANOMALY": 78.4768, "EPHEMERIS_TYPE": 0, "CLASSIFICATION_TYPE": "U", "NORAD_CAT_ID": 29892, "ELEMENT_SET_NO": 999, "REV_AT_EPOCH": 96663, "BSTAR": 0.0037980979, "MEAN_MOTION_DOT": 0.00012497, "MEAN_MOTION_DDOT": 0}, "tle": {"line1": "1 29892U 99025GN  25347.68650590  .00012497  00000+0  37981-2 0  9997", "line2": "2 29892  99.1807 135.2867 0191378 294.5890  78.4768 14.32209691966631"}}, "geometry": {"type": "Point", "coordinates": [133.8708213622059, 12.654626664829882]}}, {"type": "Feature", "properties": {"norad_id": 29893, "name": "FENGYUN 1C DEB", "group": "fengyun-1c-debris", "lat": -16.79193144338188, "lon": -98.37494462172677, "alt_km": 883.5191222907306, "timestamp": "2025-12-14T07:33:19.749550+00:00", "meta": {"OBJECT_NAME": "FENGYUN 1C DEB", "OBJECT_ID": "1999-025GP", "EPOCH": "2025-12-13T13:17:26.894400", "MEAN_MOTION": 13.7946186, "ECCENTRICITY": 0.01736819, "INCLINATION": 98.5535, "RA_OF_ASC_NODE": 83.5401, "ARG_OF_PERICENTER": 151.2268, "MEAN_ANOMALY": 226.9301, "EPHEMERIS_TYPE": 0, "CLASSIFICATION_TYPE": "U", "NORAD_CAT_ID": 29893, "ELEMENT_SET_NO": 999, "REV_AT_EPOCH": 95151, "BSTAR": 0.00029082634, "MEAN_MOTION_DOT": 2.98e-06, "MEAN_MOTION_DDOT": 0}, "tle": {"line1": "1 29893U 99025GP  25347.55378350  .00000298  00000+0  29083-3 0  9996", "line2": "2 29893  98.5535  83.5401 0173681 151.2268 226.9301 13.79461860951519"}}, "geometry": {"type": "Point", "coordinates": [-98.37494462172677, -16.79193144338188]}}, {"type": "Feature", "properties": {"norad_id": 29894, "name": "FENGYUN 1C DEB", "group": "fengyun-1c-debris", "lat": -51.01801275935262, "lon": -149.285861450887, "alt_km": 1088.547458357104, "timestamp": "2025-12-14T07:33:19.749560+00:00", "meta": {"OBJECT_NAME": "FENGYUN 1C DEB", "OBJECT_ID": "1999-025GQ", "EPOCH": "2025-12-13T15:31:10.750080", "MEAN_MOTION": 13.80973788, "ECCENTRICITY": 0.01684428, "INCLINATION": 99.4857, "RA_OF_ASC_NODE": 41.966, "ARG_OF_PERICENTER": 42.662, "MEAN_ANOMALY": 109.6481, "EPHEMERIS_TYPE": 0, "CLASSIFICATION_TYPE": "U", "NORAD_CAT_ID": 29894, "ELEMENT_SET_NO": 999, "REV_AT_EPOCH": 95089, "BSTAR": 0.00066026426, "MEAN_MOTION_DOT": 7.31e-06, "MEAN_MOTION_DDOT": 0}, "tle": {"line1": "1 29894U 99025GQ  25347.64665220  .00000731  00000+0  66026-3 0  9992", "line2": "2 29894  99.4857  41.9660 0168442  42.6620 109.6481 13.80973788950891"}}, "geometry": {"type": "Point", "coordinates": [-149.285861450887, -51.01801275935262]}}, {"type": "Feature", "properties": {"norad_id": 29895, "name": "FENGYUN 1C DEB", "group": "fengyun-1c-debris", "lat": 50.11319755173536, "lon": -71.09957317988105, "alt_km": 1045.5218303242082, "timestamp": "2025-12-14T07:33:19.749571+00:00", "meta": {"OBJECT_NAME": "FENGYUN 1C DEB", "OBJECT_ID": "1999-025GR", "EPOCH": "2025-12-13T05:38:37.901760", "MEAN_MOTION": 14.08244016, "ECCENTRICITY": 0.02993742, "INCLINATION": 99.8842, "RA_OF_ASC_NODE": 95.6754, "ARG_OF_PERICENTER": 342.3496, "MEAN_ANOMALY": 74.067, "EPHEMERIS_TYPE": 0, "CLASSIFICATION_TYPE": "U", "NORAD_CAT_ID": 29895, "ELEMENT_SET_NO": 999, "REV_AT_EPOCH": 95531, "BSTAR": 0.003321772, "MEAN_MOTION_DOT": 8.52e-05, "MEAN_MOTION_DDOT": 0}, "tle": {"line1": "1 29895U 99025GR  25347.23516090  .00008520  00000+0  33218-2 0  9998", "line2": "2 29895  99.8842  95.6754 0299374 342.3496  74.0670 14.08244016955313"}}, "geometry": {"type": "Point", "coordinates": [-71.09957317988105, 50.11319755173536]}}, {"type": "Feature", "properties": {"norad_id": 29896, "name": "FENGYUN 1C DEB", "group": "fengyun-1c-debris", "lat": -49.045599533036075, "lon": -108.97027053928613, "alt_km": 1171.7229581249576, "timestamp": "2025-12-14T07:33:19.749581+00:00", "meta": {"OBJECT_NAME": "FENGYUN 1C DEB", "OBJECT_ID": "1999-025GS", "EPOCH": "2025-12-13T16:17:05.322912", "MEAN_MOTION": 13.65368417, "ECCENTRICITY": 0.02397245, "INCLINATION": 99.4221, "RA_OF_ASC_NODE": 239.3814, "ARG_OF_PERICENTER": 99.506, "MEAN_ANOMALY": 326.2254, "EPHEMERIS_TYPE": 0, "CLASSIFICATION_TYPE": "U", "NORAD_CAT_ID": 29896, "ELEMENT_SET_NO": 999, "REV_AT_EPOCH": 94055, "BSTAR": 0.00077182278, "MEAN_MOTION_DOT": 7.23e-06, "MEAN_MOTION_DDOT": 0}, "tle": {"line1": "1 29896U 99025GS  25347.67853383  .00000723  00000+0  77182-3 0  9992", "line2": "2 29896  99.4221 239.3814 0239724  99.5060 326.2254 13.65368417940550"}}, "geometry": {"type": "Point", "coordinates": [-108.97027053928613, -49.045599533036075]}}, {"type": "Feature", "properties": {"norad_id": 29897, "name": "FENGYUN 1C DEB", "group": "fengyun-1c-debris", "lat": -7.561427204983663, "lon": 31.23976017906088, "alt_km": 912.7441512221312, "timestamp": "2025-12-14T07:33:19.749592+00:00", "meta": {"OBJECT_NAME": "FENGYUN 1C DEB", "OBJECT_ID": "1999-025GT", "EPOCH": "2025-12-12T21:09:07.860672", "MEAN_MOTION": 13.57182709, "ECCENTRICITY": 0.02964947, "INCLINATION": 98.6294, "RA_OF_ASC_NODE": 211.1348, "ARG_OF_PERICENTER": 138.3844, "MEAN_ANOMALY": 246.4529, "EPHEMERIS_TYPE": 0, "CLASSIFICATION_TYPE": "U", "NORAD_CAT_ID": 29897, "ELEMENT_SET_NO": 999, "REV_AT_EPOCH": 92942, "BSTAR": 0.0025913947, "MEAN_MOTION_DOT": 2.423e-05, "MEAN_MOTION_DDOT": 0}, "tle": {"line1": "1 29897U 99025GT  25346.88134098  .00002423  00000+0  25914-2 0  9994", "line2": "2 29897  98.6294 211.1348 0296494 138.3844 246.4529 13.57182709929421"}}, "geometry": {"type": "Point", "coordinates": [31.23976017906088, -7.561427204983663]}}, {"type": "Feature", "properties": {"norad_id": 29898, "name": "FENGYUN 1C DEB", "group": "fengyun-1c-debris", "lat": -50.81637005905667, "lon": -9.339168265770134, "alt_km": 1169.4939462859438, "timestamp": "2025-12-14T07:33:19.749602+00:00", "meta": {"OBJECT_NAME": "FENGYUN 1C DEB", "OBJECT_ID": "1999-025GU", "EPOCH": "2025-12-13T11:26:39.467616", "MEAN_MOTION": 13.70317531, "ECCENTRICITY": 0.04271498, "INCLINATION": 98.2234, "RA_OF_ASC_NODE": 339.7225, "ARG_OF_PERICENTER": 187.3095, "MEAN_ANOMALY": 305.4996, "EPHEMERIS_TYPE": 0, "CLASSIFICATION_TYPE": "U", "NORAD_CAT_ID": 29898, "ELEMENT_SET_NO": 999, "REV_AT_EPOCH": 93171, "BSTAR": 0.0027023534, "MEAN_MOTION_DOT": 4.523e-05, "MEAN_MOTION_DDOT": 0}, "tle": {"line1": "1 29898U 99025GU  25347.47684569  .00004523  00000+0  27024-2 0  9991", "line2": "2 29898  98.2234 339.7225 0427149 187.3095 305.4996 13.70317531931715"}}, "geometry": {"type": "Point", "coordinates": [-9.339168265770134, -50.81637005905667]}}, {"type": "Feature", "properties": {"norad_id": 29899, "name": "FENGYUN 1C DEB", "group": "fengyun-1c-debris", "lat": 12.201049373912928, "lon": -34.51470788660263, "alt_km": 1122.0336958005064, "timestamp": "2025-12-14T07:33:19.749613+00:00", "meta": {"OBJECT_NAME": "FENGYUN 1C DEB", "OBJECT_ID": "1999-025GV", "EPOCH": "2025-12-12T22:26:39.322176", "MEAN_MOTION": 13.37492488, "ECCENTRICITY": 0.03535928, "INCLINATION": 98.6617, "RA_OF_ASC_NODE": 142.4193, "ARG_OF_PERICENTER": 78.4908, "MEAN_ANOMALY": 285.5699, "EPHEMERIS_TYPE": 0, "CLASSIFICATION_TYPE": "U", "NORAD_CAT_ID": 29899, "ELEMENT_SET_NO": 999, "REV_AT_EPOCH": 92087, "BSTAR": 0.00027482953, "MEAN_MOTION_DOT": 1.74e-06, "MEAN_MOTION_DDOT": 0}, "tle": {"line1": "1 29899U 99025GV  25346.93517734  .00000174  00000+0  27483-3 0  9999", "line2": "2 29899  98.6617 142.4193 0353592  78.4908 285.5699 13.37492488920872"}}, "geometry": {"type": "Point", "coordinates": [-34.51470788660263, 12.201049373912928]}}, {"type": "Feature", "properties": {"norad_id": 29901, "name": "FENGYUN 1C DEB", "group": "fengyun-1c-debris", "lat": -27.286814377904484, "lon": 163.46749817312232, "alt_km": 954.7746132514048, "timestamp": "2025-12-14T07:33:19.749623+00:00", "meta": {"OBJECT_NAME": "FENGYUN 1C DEB", "OBJECT_ID": "1999-025GX", "EPOCH": "2025-12-13T10:21:19.076256", "MEAN_MOTION": 13.33254358, "ECCENTRICITY": 0.03791529, "INCLINATION": 98.7443, "RA_OF_ASC_NODE": 158.1584, "ARG_OF_PERICENTER": 283.5866, "MEAN_ANOMALY": 127.9765, "EPHEMERIS_TYPE": 0, "CLASSIFICATION_TYPE": "U", "NORAD_CAT_ID": 29901, "ELEMENT_SET_NO": 999, "REV_AT_EPOCH": 91928, "BSTAR": 0.00060659317, "MEAN_MOTION_DOT": 4.08e-06, "MEAN_MOTION_DDOT": 0}, "tle": {"line1": "1 29901U 99025GX  25347.43147079  .00000408  00000+0  60659-3 0  9992", "line2": "2 29901  98.7443 158.1584 0379152 283.5866 127.9765 13.33254358919288"}}, "geometry": {"type": "Point", "coordinates": [163.46749817312232, -27.286814377904484]}}, {"type": "Feature", "properties": {"norad_id": 29904, "name": "FENGYUN 1C DEB", "group": "fengyun-1c-debris", "lat": 80.42287486016443, "lon": -83.01403958814568, "alt_km": 846.8560232497466, "timestamp": "2025-12-14T07:33:19.749633+00:00", "meta": {"OBJECT_NAME": "FENGYUN 1C DEB", "OBJECT_ID": "1999-025HA", "EPOCH": "2025-12-13T12:50:19.714560", "MEAN_MOTION": 14.44484333, "ECCENTRICITY": 0.02077052, "INCLINATION": 99.0422, "RA_OF_ASC_NODE": 25.4575, "ARG_OF_PERICENTER": 316.3022, "MEAN_ANOMALY": 42.1883, "EPHEMERIS_TYPE": 0, "CLASSIFICATION_TYPE": "U", "NORAD_CAT_ID": 29904, "ELEMENT_SET_NO": 999, "REV_AT_EPOCH": 99075, "BSTAR": 0.00060510425, "MEAN_MOTION_DOT": 2.659e-05, "MEAN_MOTION_DDOT": 0}, "tle": {"line1": "1 29904U 99025HA  25347.53495040  .00002659  00000+0  60510-3 0  9996", "line2": "2 29904  99.0422  25.4575 0207705 316.3022  42.1883 14.44484333990752"}}, "geometry": {"type": "Point", "coordinates": [-83.01403958814568, 80.42287486016443]}}]}